[{"OBJECT_NAME":"STARLINK-1404","OBJECT_ID":"2020-035AF","EPOCH":"2026-03-09T22:58:16.298976","MEAN_MOTION":15.3019821,"ECCENTRICITY":0.0001357,"INCLINATION":53.1608,"RA_OF_ASC_NODE":48.4571,"ARG_OF_PERICENTER":89.2984,"MEAN_ANOMALY":270.8172,"EPHEMERIS_TYPE":0,"CLASSIFICATION_TYPE":"U","NORAD_CAT_ID":45686,"ELEMENT_SET_NO":999,"REV_AT_EPOCH":31901,"BSTAR":3.7396603e-5,"MEAN_MOTION_DOT":7.48e-6,"MEAN_MOTION_DDOT":0},{"OBJECT_NAME":"GEISAT PRECURSOR","OBJECT_ID":"2023-084C","EPOCH":"2026-03-09T22:20:25.833120","MEAN_MOTION":15.33054389,"ECCENTRICITY":0.00051675,"INCLINATION":97.6055,"RA_OF_ASC_NODE":206.8263,"ARG_OF_PERICENTER":345.1842,"MEAN_ANOMALY":14.9247,"EPHEMERIS_TYPE":0,"CLASSIFICATION_TYPE":"U","NORAD_CAT_ID":56934,"ELEMENT_SET_NO":999,"REV_AT_EPOCH":15231,"BSTAR":0.00033857167,"MEAN_MOTION_DOT":0.00010736,"MEAN_MOTION_DDOT":0}]
